start=new Date('2022-05-25T00:00:00.000Z').valueOf();
sats=[{"SEMIMAJOR_AXIS":"6925.370","MEAN_ANOMALY":"295.8777","CENTER_NAME":"EARTH","TIME_SYSTEM":"UTC","BSTAR":"0.00013762000000","COUNTRY_CODE":"US","SITE":"AFETR","ARG_OF_PERICENTER":"64.2390","MEAN_MOTION_DOT":"0.00001768","FILE":"3462783","REF_FRAME":"TEME","REV_AT_EPOCH":"12829","MEAN_MOTION_DDOT":"0.0000000000000","ECCENTRICITY":"0.00017220","PERIAPSIS":"546.043","EPOCH":"2022-05-24T20:57:58.934592","OBJECT_ID":"2020-006BE","EPHEMERIS_TYPE":"0","GP_ID":"204452205","RA_OF_ASC_NODE":"343.3021","MEAN_MOTION":"15.06392873","TLE_LINE1":"1 45096U 20006BE  22144.87359878  .00001768  00000-0  13762-3 0  9994","LAUNCH_DATE":"2020-01-29","OBJECT_TYPE":"PAYLOAD","TLE_LINE2":"2 45096  53.0554 343.3021 0001722  64.2390 295.8777 15.06392873128291","ELEMENT_SET_NO":"999","OBJECT_NAME":"STARLINK-1152","INCLINATION":"53.0554","DECAY_DATE":null,"MEAN_ELEMENT_THEORY":"SGP4","PERIOD":"95.593","RCS_SIZE":"LARGE","CLASSIFICATION_TYPE":"U","APOAPSIS":"548.428","NORAD_CAT_ID":"45096"},{"RCS_SIZE":"LARGE","MEAN_ELEMENT_THEORY":"SGP4","PERIOD":"95.593","INCLINATION":"53.0548","DECAY_DATE":null,"OBJECT_NAME":"STARLINK-1184","ELEMENT_SET_NO":"999","NORAD_CAT_ID":"45098","APOAPSIS":"548.177","CLASSIFICATION_TYPE":"U","MEAN_MOTION":"15.06391530","TLE_LINE1":"1 45098U 20006BG  22144.85516913  .00000961  00000-0  83448-4 0  9992","RA_OF_ASC_NODE":"343.3823","GP_ID":"204452455","TLE_LINE2":"2 45098  53.0548 343.3823 0001354  81.9440 278.1703 15.06391530128291","OBJECT_TYPE":"PAYLOAD","LAUNCH_DATE":"2020-01-29","REF_FRAME":"TEME","FILE":"3462783","ARG_OF_PERICENTER":"81.9440","MEAN_MOTION_DOT":"0.00000961","EPHEMERIS_TYPE":"0","EPOCH":"2022-05-24T20:31:26.612832","OBJECT_ID":"2020-006BG","PERIAPSIS":"546.302","ECCENTRICITY":"0.00013540","MEAN_MOTION_DDOT":"0.0000000000000","REV_AT_EPOCH":"12829","BSTAR":"0.00008344800000","TIME_SYSTEM":"UTC","CENTER_NAME":"EARTH","MEAN_ANOMALY":"278.1703","SEMIMAJOR_AXIS":"6925.375","SITE":"AFETR","COUNTRY_CODE":"US"},{"MEAN_MOTION_DOT":"-0.00000619","ARG_OF_PERICENTER":"59.7131","FILE":"3462783","REF_FRAME":"TEME","REV_AT_EPOCH":"12829","MEAN_MOTION_DDOT":"0.0000000000000","ECCENTRICITY":"0.00016070","PERIAPSIS":"546.131","EPOCH":"2022-05-24T19:43:40.835424","OBJECT_ID":"2020-006BH","EPHEMERIS_TYPE":"0","SEMIMAJOR_AXIS":"6925.379","MEAN_ANOMALY":"300.4017","CENTER_NAME":"EARTH","TIME_SYSTEM":"UTC","BSTAR":"-0.00002264600000","COUNTRY_CODE":"US","SITE":"AFETR","ELEMENT_SET_NO":"999","OBJECT_NAME":"STARLINK-1186","DECAY_DATE":null,"INCLINATION":"53.0556","MEAN_ELEMENT_THEORY":"SGP4","PERIOD":"95.593","RCS_SIZE":"LARGE","CLASSIFICATION_TYPE":"U","APOAPSIS":"548.357","NORAD_CAT_ID":"45099","GP_ID":"204453207","RA_OF_ASC_NODE":"343.5461","TLE_LINE1":"1 45099U 20006BH  22144.82200041 -.00000619  00000-0 -22646-4 0  9997","MEAN_MOTION":"15.06390086","OBJECT_TYPE":"PAYLOAD","LAUNCH_DATE":"2020-01-29","TLE_LINE2":"2 45099  53.0556 343.5461 0001607  59.7131 300.4017 15.06390086128294"},{"SITE":"AFETR","COUNTRY_CODE":"US","MEAN_ANOMALY":"288.3663","CENTER_NAME":"EARTH","SEMIMAJOR_AXIS":"6925.374","BSTAR":"0.00003127700000","TIME_SYSTEM":"UTC","MEAN_MOTION_DDOT":"0.0000000000000","ECCENTRICITY":"0.00013980","REV_AT_EPOCH":"12828","OBJECT_ID":"2020-006BJ","EPOCH":"2022-05-24T18:50:36.060576","EPHEMERIS_TYPE":"0","PERIAPSIS":"546.271","FILE":"3462783","ARG_OF_PERICENTER":"71.7478","MEAN_MOTION_DOT":"0.00000184","REF_FRAME":"TEME","TLE_LINE2":"2 45100  53.0577 343.6998 0001398  71.7478 288.3663 15.06391641128289","LAUNCH_DATE":"2020-01-29","OBJECT_TYPE":"PAYLOAD","TLE_LINE1":"1 45100U 20006BJ  22144.78513959  .00000184  00000-0  31277-4 0  9995","MEAN_MOTION":"15.06391641","GP_ID":"204453451","RA_OF_ASC_NODE":"343.6998","CLASSIFICATION_TYPE":"U","NORAD_CAT_ID":"45100","APOAPSIS":"548.207","OBJECT_NAME":"STARLINK-1193","ELEMENT_SET_NO":"999","MEAN_ELEMENT_THEORY":"SGP4","PERIOD":"95.593","RCS_SIZE":"LARGE","DECAY_DATE":null,"INCLINATION":"53.0577"},{"APOAPSIS":"548.346","NORAD_CAT_ID":"45101","CLASSIFICATION_TYPE":"U","INCLINATION":"53.0552","DECAY_DATE":null,"PERIOD":"95.591","MEAN_ELEMENT_THEORY":"SGP4","RCS_SIZE":"LARGE","ELEMENT_SET_NO":"999","OBJECT_NAME":"STARLINK-1194","LAUNCH_DATE":"2020-01-29","OBJECT_TYPE":"PAYLOAD","TLE_LINE2":"2 45101  53.0552 343.6996 0001680  69.1418 290.9750 15.06410209128288","GP_ID":"204451706","RA_OF_ASC_NODE":"343.6996","TLE_LINE1":"1 45101U 20006BK  22144.78144004 -.00002470  00000-0 -14696-3 0  9994","MEAN_MOTION":"15.06410209","PERIAPSIS":"546.019","OBJECT_ID":"2020-006BK","EPOCH":"2022-05-24T18:45:16.419456","EPHEMERIS_TYPE":"0","REV_AT_EPOCH":"12828","MEAN_MOTION_DDOT":"0.0000000000000","ECCENTRICITY":"0.00016800","REF_FRAME":"TEME","ARG_OF_PERICENTER":"69.1418","MEAN_MOTION_DOT":"-0.00002470","FILE":"3462783","COUNTRY_CODE":"US","SITE":"AFETR","TIME_SYSTEM":"UTC","BSTAR":"-0.00014696000000","SEMIMAJOR_AXIS":"6925.317","MEAN_ANOMALY":"290.9750","CENTER_NAME":"EARTH"},{"MEAN_ANOMALY":"285.8282","CENTER_NAME":"EARTH","SEMIMAJOR_AXIS":"6925.372","BSTAR":"0.00023018000000","TIME_SYSTEM":"UTC","SITE":"AFETR","COUNTRY_CODE":"US","FILE":"3462783","ARG_OF_PERICENTER":"74.2876","MEAN_MOTION_DOT":"0.00003148","REF_FRAME":"TEME","MEAN_MOTION_DDOT":"0.0000000000000","ECCENTRICITY":"0.00015300","REV_AT_EPOCH":"12829","EPOCH":"2022-05-24T20:52:40.170432","OBJECT_ID":"2020-006BL","EPHEMERIS_TYPE":"0","PERIAPSIS":"546.177","TLE_LINE1":"1 45102U 20006BL  22144.86990938  .00003148  00000-0  23018-3 0  9998","MEAN_MOTION":"15.06392508","GP_ID":"204451956","RA_OF_ASC_NODE":"343.3210","TLE_LINE2":"2 45102  53.0547 343.3210 0001530  74.2876 285.8282 15.06392508128293","OBJECT_TYPE":"PAYLOAD","LAUNCH_DATE":"2020-01-29","OBJECT_NAME":"STARLINK-1195","ELEMENT_SET_NO":"999","PERIOD":"95.593","MEAN_ELEMENT_THEORY":"SGP4","RCS_SIZE":"LARGE","INCLINATION":"53.0547","DECAY_DATE":null,"CLASSIFICATION_TYPE":"U","NORAD_CAT_ID":"45102","APOAPSIS":"548.296"},{"CENTER_NAME":"EARTH","MEAN_ANOMALY":"266.2521","SEMIMAJOR_AXIS":"6925.348","BSTAR":"0.00017811000000","TIME_SYSTEM":"UTC","SITE":"AFETR","COUNTRY_CODE":"US","FILE":"3462783","ARG_OF_PERICENTER":"93.8620","MEAN_MOTION_DOT":"0.00002372","REF_FRAME":"TEME","ECCENTRICITY":"0.00013310","MEAN_MOTION_DDOT":"0.0000000000000","REV_AT_EPOCH":"12829","EPHEMERIS_TYPE":"0","EPOCH":"2022-05-24T20:03:28.964160","OBJECT_ID":"2020-006BM","PERIAPSIS":"546.291","MEAN_MOTION":"15.06400301","TLE_LINE1":"1 45103U 20006BM  22144.83575190  .00002372  00000-0  17811-3 0  9997","RA_OF_ASC_NODE":"343.5071","GP_ID":"204452708","TLE_LINE2":"2 45103  53.0507 343.5071 0001331  93.8620 266.2521 15.06400301128290","OBJECT_TYPE":"PAYLOAD","LAUNCH_DATE":"2020-01-29","OBJECT_NAME":"STARLINK-1196","ELEMENT_SET_NO":"999","RCS_SIZE":"LARGE","PERIOD":"95.592","MEAN_ELEMENT_THEORY":"SGP4","DECAY_DATE":null,"INCLINATION":"53.0507","CLASSIFICATION_TYPE":"U","NORAD_CAT_ID":"45103","APOAPSIS":"548.134"},{"ARG_OF_PERICENTER":"51.3684","MEAN_MOTION_DOT":"-0.00001733","FILE":"3462783","REF_FRAME":"TEME","REV_AT_EPOCH":"12602","ECCENTRICITY":"0.00018790","MEAN_MOTION_DDOT":"0.0000000000000","PERIAPSIS":"545.932","EPHEMERIS_TYPE":"0","OBJECT_ID":"2020-012A","EPOCH":"2022-05-24T16:32:36.409920","SEMIMAJOR_AXIS":"6925.368","CENTER_NAME":"EARTH","MEAN_ANOMALY":"308.7473","TIME_SYSTEM":"UTC","BSTAR":"-0.00009749500000","COUNTRY_CODE":"US","SITE":"AFETR","ELEMENT_SET_NO":"999","OBJECT_NAME":"STARLINK-1138","INCLINATION":"53.0556","DECAY_DATE":null,"RCS_SIZE":"LARGE","MEAN_ELEMENT_THEORY":"SGP4","PERIOD":"95.593","CLASSIFICATION_TYPE":"U","APOAPSIS":"548.534","NORAD_CAT_ID":"45178","RA_OF_ASC_NODE":"144.1338","GP_ID":"204452213","MEAN_MOTION":"15.06393596","TLE_LINE1":"1 45178U 20012A   22144.68931030 -.00001733  00000-0 -97495-4 0  9997","OBJECT_TYPE":"PAYLOAD","LAUNCH_DATE":"2020-02-17","TLE_LINE2":"2 45178  53.0556 144.1338 0001879  51.3684 308.7473 15.06393596126027"},{"LAUNCH_DATE":"2020-02-17","OBJECT_TYPE":"PAYLOAD","TLE_LINE2":"2 45179  53.0548 144.0991 0002068  49.3430 310.7738 15.06387799126081","GP_ID":"204452463","RA_OF_ASC_NODE":"144.0991","TLE_LINE1":"1 45179U 20012B   22144.69299474  .00000303  00000-0  39288-4 0  9994","MEAN_MOTION":"15.06387799","APOAPSIS":"548.683","NORAD_CAT_ID":"45179","CLASSIFICATION_TYPE":"U","DECAY_DATE":null,"INCLINATION":"53.0548","MEAN_ELEMENT_THEORY":"SGP4","PERIOD":"95.593","RCS_SIZE":"LARGE","ELEMENT_SET_NO":"999","OBJECT_NAME":"STARLINK-1143","COUNTRY_CODE":"US","SITE":"AFETR","TIME_SYSTEM":"UTC","BSTAR":"0.00003928800000","SEMIMAJOR_AXIS":"6925.386","MEAN_ANOMALY":"310.7738","CENTER_NAME":"EARTH","PERIAPSIS":"545.819","OBJECT_ID":"2020-012B","EPOCH":"2022-05-24T16:37:54.745536","EPHEMERIS_TYPE":"0","REV_AT_EPOCH":"12608","MEAN_MOTION_DDOT":"0.0000000000000","ECCENTRICITY":"0.00020680","REF_FRAME":"TEME","MEAN_MOTION_DOT":"0.00000303","ARG_OF_PERICENTER":"49.3430","FILE":"3462783"},{"OBJECT_TYPE":"PAYLOAD","LAUNCH_DATE":"2020-02-17","TLE_LINE2":"2 45180  53.0516 145.1786 0002115  16.1408 343.9649 15.08861719126037","RA_OF_ASC_NODE":"145.1786","GP_ID":"204414352","MEAN_MOTION":"15.08861719","TLE_LINE1":"1 45180U 20012C   22144.27879845  .00013394  00000-0  85748-3 0  9991","CLASSIFICATION_TYPE":"U","APOAPSIS":"541.142","NORAD_CAT_ID":"45180","ELEMENT_SET_NO":"999","OBJECT_NAME":"STARLINK-1192","DECAY_DATE":null,"INCLINATION":"53.0516","RCS_SIZE":"LARGE","MEAN_ELEMENT_THEORY":"SGP4","PERIOD":"95.436","COUNTRY_CODE":"US","SITE":"AFETR","SEMIMAJOR_AXIS":"6917.814","CENTER_NAME":"EARTH","MEAN_ANOMALY":"343.9649","TIME_SYSTEM":"UTC","BSTAR":"0.00085748000000","REV_AT_EPOCH":"12603","ECCENTRICITY":"0.00021150","MEAN_MOTION_DDOT":"0.0000000000000","PERIAPSIS":"538.216","EPHEMERIS_TYPE":"0","OBJECT_ID":"2020-012C","EPOCH":"2022-05-24T06:41:28.186080","ARG_OF_PERICENTER":"16.1408","MEAN_MOTION_DOT":"0.00013394","FILE":"3462176","REF_FRAME":"TEME"}];
